start=new Date('2023-06-08T00:00:00.000Z').valueOf();
sats=[{"PERIOD":"96.107","ELEMENT_SET_NO":"999","RA_OF_ASC_NODE":"320.4615","CENTER_NAME":"EARTH","COUNTRY_CODE":"US","TLE_LINE1":"1 55925U 23037M   23158.84785908 -.00000588  00000-0 -41452-4 0  9992","NORAD_CAT_ID":"55925","OBJECT_NAME":"STARLINK-5922","ARG_OF_PERICENTER":"268.8142","LAUNCH_DATE":"2023-03-17","CLASSIFICATION_TYPE":"U","TLE_LINE2":"2 55925  69.9995 320.4615 0003171 268.8142  91.2654 14.98328168 12829","SEMIMAJOR_AXIS":"6950.199","MEAN_MOTION_DDOT":"0.0000000000000","REF_FRAME":"TEME","TIME_SYSTEM":"UTC","SITE":"AFWTR","OBJECT_TYPE":"PAYLOAD","EPHEMERIS_TYPE":"0","MEAN_ELEMENT_THEORY":"SGP4","OBJECT_ID":"2023-037M","DECAY_DATE":null,"MEAN_MOTION_DOT":"-0.00000588","APOAPSIS":"574.267","MEAN_MOTION":"14.98328168","FILE":"3927436","RCS_SIZE":"LARGE","REV_AT_EPOCH":"1282","PERIAPSIS":"569.860","INCLINATION":"69.9995","MEAN_ANOMALY":"91.2654","BSTAR":"-0.00004145200000","EPOCH":"2023-06-07T20:20:55.024512","ECCENTRICITY":"0.00031710","GP_ID":"233434871"},{"CENTER_NAME":"EARTH","RA_OF_ASC_NODE":"310.4635","PERIOD":"91.724","ELEMENT_SET_NO":"999","TIME_SYSTEM":"UTC","SITE":"AFWTR","OBJECT_TYPE":"PAYLOAD","EPHEMERIS_TYPE":"0","REF_FRAME":"TEME","NORAD_CAT_ID":"55926","OBJECT_NAME":"STARLINK-5921","CLASSIFICATION_TYPE":"U","TLE_LINE2":"2 55926  69.9973 310.4635 0003119 265.9785  94.1054 15.69932420 13064","SEMIMAJOR_AXIS":"6737.227","MEAN_MOTION_DDOT":"0.0000000000000","LAUNCH_DATE":"2023-03-17","ARG_OF_PERICENTER":"265.9785","COUNTRY_CODE":"US","TLE_LINE1":"1 55926U 23037N   23158.79088469  .00001477  00000-0  14042-4 0  9996","MEAN_MOTION":"15.69932420","FILE":"3927436","RCS_SIZE":"LARGE","APOAPSIS":"361.194","MEAN_MOTION_DOT":"0.00001477","DECAY_DATE":null,"MEAN_ELEMENT_THEORY":"SGP4","OBJECT_ID":"2023-037N","ECCENTRICITY":"0.00031190","GP_ID":"233435623","EPOCH":"2023-06-07T18:58:52.437216","BSTAR":"0.00001404200000","INCLINATION":"69.9973","PERIAPSIS":"356.991","MEAN_ANOMALY":"94.1054","REV_AT_EPOCH":"1306"},{"BSTAR":"-0.00001147000000","PERIAPSIS":"569.859","INCLINATION":"69.9993","MEAN_ANOMALY":"90.7514","REV_AT_EPOCH":"1282","ECCENTRICITY":"0.00031720","GP_ID":"233435374","EPOCH":"2023-06-07T20:14:54.354624","DECAY_DATE":null,"MEAN_ELEMENT_THEORY":"SGP4","OBJECT_ID":"2023-037P","MEAN_MOTION":"14.98328277","RCS_SIZE":"LARGE","FILE":"3927436","APOAPSIS":"574.268","MEAN_MOTION_DOT":"-0.00000230","OBJECT_NAME":"STARLINK-5919","NORAD_CAT_ID":"55927","TLE_LINE2":"2 55927  69.9993 320.4474 0003172 269.3281  90.7514 14.98328277 12823","SEMIMAJOR_AXIS":"6950.198","CLASSIFICATION_TYPE":"U","MEAN_MOTION_DDOT":"0.0000000000000","LAUNCH_DATE":"2023-03-17","ARG_OF_PERICENTER":"269.3281","COUNTRY_CODE":"US","TLE_LINE1":"1 55927U 23037P   23158.84368466 -.00000230  00000-0 -11470-4 0  9991","SITE":"AFWTR","TIME_SYSTEM":"UTC","OBJECT_TYPE":"PAYLOAD","EPHEMERIS_TYPE":"0","REF_FRAME":"TEME","CENTER_NAME":"EARTH","RA_OF_ASC_NODE":"320.4474","ELEMENT_SET_NO":"999","PERIOD":"96.107"},{"CENTER_NAME":"EARTH","ELEMENT_SET_NO":"999","PERIOD":"96.107","RA_OF_ASC_NODE":"320.4178","LAUNCH_DATE":"2023-03-17","ARG_OF_PERICENTER":"270.0683","TLE_LINE2":"2 55928  69.9994 320.4178 0003047 270.0683  90.0127 14.98330222 12828","MEAN_MOTION_DDOT":"0.0000000000000","SEMIMAJOR_AXIS":"6950.192","CLASSIFICATION_TYPE":"U","NORAD_CAT_ID":"55928","OBJECT_NAME":"STARLINK-5930","TLE_LINE1":"1 55928U 23037Q   23158.83533561 -.00000441  00000-0 -29205-4 0  9990","COUNTRY_CODE":"US","OBJECT_TYPE":"PAYLOAD","EPHEMERIS_TYPE":"0","SITE":"AFWTR","TIME_SYSTEM":"UTC","REF_FRAME":"TEME","DECAY_DATE":null,"OBJECT_ID":"2023-037Q","MEAN_ELEMENT_THEORY":"SGP4","RCS_SIZE":"LARGE","FILE":"3927436","MEAN_MOTION":"14.98330222","MEAN_MOTION_DOT":"-0.00000441","APOAPSIS":"574.175","BSTAR":"-0.00002920500000","REV_AT_EPOCH":"1282","MEAN_ANOMALY":"90.0127","PERIAPSIS":"569.939","INCLINATION":"69.9994","GP_ID":"233434622","ECCENTRICITY":"0.00030470","EPOCH":"2023-06-07T20:02:52.996704"},{"EPOCH":"2023-06-07T20:08:53.708928","ECCENTRICITY":"0.00028640","GP_ID":"233434372","REV_AT_EPOCH":"1282","MEAN_ANOMALY":"90.3639","PERIAPSIS":"570.068","INCLINATION":"69.9994","BSTAR":"-0.00001408300000","MEAN_MOTION_DOT":"-0.00000261","APOAPSIS":"574.049","MEAN_MOTION":"14.98329750","FILE":"3927436","RCS_SIZE":"LARGE","MEAN_ELEMENT_THEORY":"SGP4","OBJECT_ID":"2023-037R","DECAY_DATE":null,"REF_FRAME":"TEME","SITE":"AFWTR","TIME_SYSTEM":"UTC","EPHEMERIS_TYPE":"0","OBJECT_TYPE":"PAYLOAD","COUNTRY_CODE":"US","TLE_LINE1":"1 55929U 23037R   23158.83951052 -.00000261  00000-0 -14083-4 0  9998","NORAD_CAT_ID":"55929","OBJECT_NAME":"STARLINK-5898","ARG_OF_PERICENTER":"269.7192","LAUNCH_DATE":"2023-03-17","TLE_LINE2":"2 55929  69.9994 320.4310 0002864 269.7192  90.3639 14.98329750 12828","MEAN_MOTION_DDOT":"0.0000000000000","SEMIMAJOR_AXIS":"6950.194","CLASSIFICATION_TYPE":"U","ELEMENT_SET_NO":"999","PERIOD":"96.107","RA_OF_ASC_NODE":"320.4310","CENTER_NAME":"EARTH"},{"RCS_SIZE":"LARGE","FILE":"3927436","MEAN_MOTION":"15.69919990","MEAN_MOTION_DOT":"-0.00000333","APOAPSIS":"361.439","DECAY_DATE":null,"OBJECT_ID":"2023-037S","MEAN_ELEMENT_THEORY":"SGP4","GP_ID":"233435124","ECCENTRICITY":"0.00034300","EPOCH":"2023-06-07T20:30:20.128032","BSTAR":"-0.00000100250000","REV_AT_EPOCH":"1307","INCLINATION":"69.9988","PERIAPSIS":"356.817","MEAN_ANOMALY":"89.5588","CENTER_NAME":"EARTH","PERIOD":"91.724","ELEMENT_SET_NO":"999","RA_OF_ASC_NODE":"310.2819","EPHEMERIS_TYPE":"0","OBJECT_TYPE":"PAYLOAD","SITE":"AFWTR","TIME_SYSTEM":"UTC","REF_FRAME":"TEME","LAUNCH_DATE":"2023-03-17","ARG_OF_PERICENTER":"270.5214","TLE_LINE2":"2 55930  69.9988 310.2819 0003430 270.5214  89.5588 15.69919990 13070","CLASSIFICATION_TYPE":"U","SEMIMAJOR_AXIS":"6737.263","MEAN_MOTION_DDOT":"0.0000000000000","OBJECT_NAME":"STARLINK-5896","NORAD_CAT_ID":"55930","TLE_LINE1":"1 55930U 23037S   23158.85439963 -.00000333  00000-0 -10025-5 0  9997","COUNTRY_CODE":"US"},{"BSTAR":"0.00000730680000","PERIAPSIS":"569.903","MEAN_ANOMALY":"91.0398","INCLINATION":"69.9996","REV_AT_EPOCH":"1282","GP_ID":"233435874","ECCENTRICITY":"0.00030980","EPOCH":"2023-06-07T19:56:52.292256","DECAY_DATE":null,"OBJECT_ID":"2023-037T","MEAN_ELEMENT_THEORY":"SGP4","RCS_SIZE":"LARGE","FILE":"3927436","MEAN_MOTION":"14.98330636","APOAPSIS":"574.209","MEAN_MOTION_DOT":"-0.00000006","TLE_LINE2":"2 55931  69.9996 320.4021 0003098 269.0406  91.0398 14.98330636 12828","SEMIMAJOR_AXIS":"6950.191","CLASSIFICATION_TYPE":"U","MEAN_MOTION_DDOT":"0.0000000000000","LAUNCH_DATE":"2023-03-17","ARG_OF_PERICENTER":"269.0406","OBJECT_NAME":"STARLINK-5897","NORAD_CAT_ID":"55931","TLE_LINE1":"1 55931U 23037T   23158.83116079 -.00000006  00000-0  73068-5 0  9998","COUNTRY_CODE":"US","EPHEMERIS_TYPE":"0","OBJECT_TYPE":"PAYLOAD","TIME_SYSTEM":"UTC","SITE":"AFWTR","REF_FRAME":"TEME","CENTER_NAME":"EARTH","RA_OF_ASC_NODE":"320.4021","ELEMENT_SET_NO":"999","PERIOD":"96.107"},{"BSTAR":"0.00000886110000","PERIAPSIS":"356.645","INCLINATION":"69.9980","MEAN_ANOMALY":"88.1109","REV_AT_EPOCH":"1307","GP_ID":"233434123","ECCENTRICITY":"0.00036360","EPOCH":"2023-06-07T20:25:27.982848","DECAY_DATE":null,"OBJECT_ID":"2023-037U","MEAN_ELEMENT_THEORY":"SGP4","RCS_SIZE":"LARGE","FILE":"3927436","MEAN_MOTION":"15.69931746","APOAPSIS":"361.544","MEAN_MOTION_DOT":"0.00000853","TLE_LINE2":"2 55932  69.9980 310.2669 0003636 271.9670  88.1109 15.69931746 13073","SEMIMAJOR_AXIS":"6737.229","MEAN_MOTION_DDOT":"0.0000000000000","CLASSIFICATION_TYPE":"U","LAUNCH_DATE":"2023-03-17","ARG_OF_PERICENTER":"271.9670","NORAD_CAT_ID":"55932","OBJECT_NAME":"STARLINK-5848","TLE_LINE1":"1 55932U 23037U   23158.85101832  .00000853  00000-0  88611-5 0  9991","COUNTRY_CODE":"US","OBJECT_TYPE":"PAYLOAD","EPHEMERIS_TYPE":"0","TIME_SYSTEM":"UTC","SITE":"AFWTR","REF_FRAME":"TEME","CENTER_NAME":"EARTH","RA_OF_ASC_NODE":"310.2669","ELEMENT_SET_NO":"999","PERIOD":"91.724"},{"OBJECT_ID":"2023-037V","MEAN_ELEMENT_THEORY":"SGP4","DECAY_DATE":null,"APOAPSIS":"361.722","MEAN_MOTION_DOT":"-0.00000075","FILE":"3927436","RCS_SIZE":"LARGE","MEAN_MOTION":"15.69919043","INCLINATION":"69.9995","PERIAPSIS":"356.539","MEAN_ANOMALY":"91.8242","REV_AT_EPOCH":"1303","BSTAR":"0.00000114870000","EPOCH":"2023-06-07T14:23:55.884768","GP_ID":"233434872","ECCENTRICITY":"0.00038460","RA_OF_ASC_NODE":"310.9992","ELEMENT_SET_NO":"999","PERIOD":"91.724","CENTER_NAME":"EARTH","TLE_LINE1":"1 55933U 23037V   23158.59995237 -.00000075  00000-0  11487-5 0  9997","COUNTRY_CODE":"US","SEMIMAJOR_AXIS":"6737.266","TLE_LINE2":"2 55933  69.9995 310.9992 0003846 268.2514  91.8242 15.69919043 13036","MEAN_MOTION_DDOT":"0.0000000000000","CLASSIFICATION_TYPE":"U","LAUNCH_DATE":"2023-03-17","ARG_OF_PERICENTER":"268.2514","NORAD_CAT_ID":"55933","OBJECT_NAME":"STARLINK-5852","REF_FRAME":"TEME","EPHEMERIS_TYPE":"0","OBJECT_TYPE":"PAYLOAD","SITE":"AFWTR","TIME_SYSTEM":"UTC"},{"MEAN_MOTION":"15.69942812","FILE":"3927436","RCS_SIZE":"LARGE","MEAN_MOTION_DOT":"0.00002776","APOAPSIS":"361.727","DECAY_DATE":null,"MEAN_ELEMENT_THEORY":"SGP4","OBJECT_ID":"2023-037W","ECCENTRICITY":"0.00039540","GP_ID":"233435624","EPOCH":"2023-06-07T18:57:38.603232","BSTAR":"0.00002483200000","REV_AT_EPOCH":"1306","INCLINATION":"69.9974","PERIAPSIS":"356.399","MEAN_ANOMALY":"99.7320","CENTER_NAME":"EARTH","PERIOD":"91.723","ELEMENT_SET_NO":"999","RA_OF_ASC_NODE":"310.4571","SITE":"AFWTR","TIME_SYSTEM":"UTC","OBJECT_TYPE":"PAYLOAD","EPHEMERIS_TYPE":"0","REF_FRAME":"TEME","OBJECT_NAME":"STARLINK-5927","NORAD_CAT_ID":"55934","ARG_OF_PERICENTER":"260.3429","LAUNCH_DATE":"2023-03-17","TLE_LINE2":"2 55934  69.9974 310.4571 0003954 260.3429  99.7320 15.69942812 13067","SEMIMAJOR_AXIS":"6737.198","MEAN_MOTION_DDOT":"0.0000000000000","CLASSIFICATION_TYPE":"U","COUNTRY_CODE":"US","TLE_LINE1":"1 55934U 23037W   23158.79003013  .00002776  00000-0  24832-4 0  9998"}];
